ORBCOMM FM37            
1 33064U 08031E   25131.83591637  .00001306  00000+0  20016-3 0  9993
2 33064  48.4387 156.4340 0005682 225.2280 305.5759 14.79653080908663
ORBCOMM FM40            
1 33065U 08031F   25131.52706427  .00002034  00000+0  28146-3 0  9996
2 33065  48.4393 142.5462 0006881 235.3573 262.3755 14.81864017908721
VESSELSAT 1             
1 37840U 11058C   25131.90057476  .00000378  00000+0  61603-4 0  9994
2 37840  19.9631 313.4587 0013672 147.1636 212.9620 14.11347428701174
ORBCOMM FM109           
1 40086U 14040A   25131.86942939  .00000474  00000+0  13842-3 0  9994
2 40086  47.0022 187.8094 0001961 207.2202 152.8581 14.58123633575760
ORBCOMM FM107           
1 40087U 14040B   25131.55712472  .00000599  00000+0  16504-3 0  9994
2 40087  47.0040 190.2626 0000525 174.7319 185.3572 14.58188330575791
ORBCOMM FM106           
1 40088U 14040C   25131.92247255  .00000981  00000+0  19559-3 0  9996
2 40088  47.0623  13.5401 0017418 258.7267 101.1666 14.69369134578148
ORBCOMM FM111           
1 40089U 14040D   25131.64818826  .00002712  00000+0  32814-3 0  9997
2 40089  47.0012 229.9453 0030005  15.1671 345.0119 14.86127189584793
ORBCOMM FM104           
1 40090U 14040E   25131.71113521  .00000581  00000+0  16690-3 0  9993
2 40090  47.0046 222.7050 0015697  35.9874 324.2065 14.56600694575301
